1 57610U 23119J 26161.75323471 -.00001311 00000+0 -38148-4 0 9998 
2 57610 43.0030 275.6282 0000518 272.9613 87.1180 15.27560198157324 
1 57611U 23119K 26161.04426177 .00006475 00000+0 24462-3 0 9995 
2 57611 43.0033 279.7689 0003485 272.3116 87.7336 15.27579573157193 
1 57612U 23119L 26162.01605891 -.00000920 00000+0 -23934-4 0 9991 
2 57612 43.0114 274.1627 0000753 280.3368 79.7398 15.27573045157364 
1 57613U 23119M 26162.02632367 -.00000154 00000+0 39669-5 0 9992 
2 57613 43.0109 274.2363 0003236 270.5927 89.4554 15.27579318157369 
1 57614U 23119N 26162.03405217 .00000638 00000+0 32679-4 0 9995 
2 57614 42.9978 274.2929 0000385 207.3060 152.7771 15.27579938157361 
1 57615U 23119P 26162.03790132 .00000286 00000+0 19929-4 0 9991 
2 57615 43.0064 274.3058 0001610 263.7121 96.3547 15.27578289157362 
1 57616U 23119Q 26162.01349070 -.00000861 00000+0 -21778-4 0 9997 
2 57616 43.0034 274.1496 0001227 265.2482 94.8229 15.27577346157368 
1 57617U 23119R 26161.75837851 -.00012434 00000+0 -44223-3 0 9995 
2 57617 43.0026 275.6757 0000885 287.3742 72.7013 15.27642302157326 
1 57618U 23119S 26162.02375542 -.00000160 00000+0 37719-5 0 9997 
2 57618 43.0194 274.2256 0003432 264.9311 95.1149 15.27579241157360 
1 57620U 23119U 26162.03534006 -.00000948 00000+0 -24932-4 0 9990 
2 57620 43.0064 274.3087 0001047 256.9249 103.1486 15.27572046157363 
1 57621U 23119V 26161.05066425 .00000022 00000+0 10408-4 0 9991 
2 57621 43.0403 279.8180 0005666 267.6615 92.3588 15.27581005157213 
1 57622U 23119W 26162.04174509 .00000643 00000+0 32897-4 0 9990 
2 57622 43.0035 274.3288 0001560 258.8578 101.2098 15.27582360157360 
1 57623U 23119X 26160.60710658 .00001078 00000+0 48683-4 0 9995 
2 57623 43.0088 282.5079 0001972 270.7152 89.3474 15.27583871157144 
1 57624U 23120A 26162.10580839 -.00000152 00000+0 00000+0 0 9990 
2 57624 15.1059 194.1211 0000907 72.8540 120.2878 1.00270076 10482 
1 57626U 23121A 26162.19348644 .00000646 00000+0 16389-3 0 9996 
2 57626 45.0030 341.1832 0007186 247.2507 112.7591 14.60672065150707 
1 57627U 23121B 26162.27901029 .00000680 00000+0 16760-3 0 9999 
2 57627 45.0039 334.0032 0006076 238.0394 121.9873 14.61577217150809 
1 57628U 23121C 26162.30559072 .00000694 00000+0 16792-3 0 9991 
2 57628 44.9998 328.3272 0006622 238.4374 121.5837 14.62252296150874 
1 57629U 23121D 26162.26726049 .00000736 00000+0 17391-3 0 9990 
2 57629 45.0052 323.8591 0007925 235.9183 124.0924 14.62921457150933 
1 57630U 23121E 26162.29601895 .00000785 00000+0 17983-3 0 9997 
2 57630 45.0029 316.7892 0008472 229.3046 130.7077 14.63854029151022 
1 57632U 23122A 26162.24812851 .00002131 00000+0 86939-4 0 9996 
2 57632 43.0049 284.3020 0001944 271.9274 88.1355 15.27582284156516 
1 57633U 23122B 26161.07503691 .00000296 00000+0 20256-4 0 9996 
2 57633 42.9879 290.9741 0001273 106.1818 253.9174 15.27579246156332 
1 57634U 23122C 26162.03016320 -.00000780 00000+0 -18730-4 0 9996 
2 57634 43.0271 274.2116 0005239 272.0145 88.0107 15.27576597156614 
1 57635U 23122D 26162.06226690 -.00001522 00000+0 -45833-4 0 9992 
2 57635 42.9992 285.4838 0000293 8.6169 351.4688 15.27564798156488 
1 57636U 23122E 26162.06609915 -.00000338 00000+0 -27400-5 0 9993 
2 57636 43.0087 285.5129 0002427 274.5727 85.4847 15.27576905156489 
1 57637U 23122F 26161.62239577 .00001195 00000+0 52955-4 0 9990 
2 57637 43.0032 287.3456 0001057 261.0263 99.0469 15.27575896156420 
1 57638U 23122G 26162.02246279 -.00000544 00000+0 -10240-4 0 9993 
2 57638 43.0031 274.0948 0000571 279.8881 80.1906 15.27576778156621 
1 57639U 23122H 26162.04040493 .00000583 00000+0 30716-4 0 9997 
2 57639 43.0065 285.3077 0001360 265.9750 94.0946 15.27581388156480 
1 57640U 23122J 26162.05838538 -.00000409 00000+0 -53039-5 0 9998 
2 57640 43.0127 285.4510 0003019 263.9487 96.1021 15.27578812156476 
1 57641U 23122K 26161.61596605 .00000530 00000+0 28783-4 0 9996 
2 57641 43.0015 287.2962 0000700 242.2913 117.7868 15.27578082156425 
1 57642U 23122L 26161.82240461 .00001792 00000+0 74615-4 0 9992 
2 57642 42.9973 286.2637 0001316 130.1780 229.9187 15.27588543156452 
