OBJECT_NAME,OBJECT_ID,EPOCH,MEAN_MOTION,ECCENTRICITY,INCLINATION,RA_OF_ASC_NODE,ARG_OF_PERICENTER,MEAN_ANOMALY,EPHEMERIS_TYPE,CLASSIFICATION_TYPE,NORAD_CAT_ID,ELEMENT_SET_NO,REV_AT_EPOCH,BSTAR,MEAN_MOTION_DOT,MEAN_MOTION_DDOT
STARLINK-30248,2023-119J,2026-06-10T18:04:39.478944,15.27560198,.00005186,43.0030,275.6282,272.9613,87.1180,0,U,57610,999,15732,-.38148306E-4,-.1311E-4,0
STARLINK-30052,2023-119K,2026-06-10T01:03:44.216928,15.27579573,.00034853,43.0033,279.7689,272.3116,87.7336,0,U,57611,999,15719,.24462123E-3,.6475E-4,0
STARLINK-30245,2023-119L,2026-06-11T00:23:07.489824,15.27573045,.00007538,43.0114,274.1627,280.3368,79.7398,0,U,57612,999,15736,-.23934296E-4,-.92E-5,0
STARLINK-30041,2023-119M,2026-06-11T00:37:54.365088,15.27579318,.0003236,43.0109,274.2363,270.5927,89.4554,0,U,57613,999,15736,.3966938E-5,-.154E-5,0
STARLINK-30244,2023-119N,2026-06-11T00:49:02.107488,15.27579938,.00003852,42.9978,274.2929,207.3060,152.7771,0,U,57614,999,15736,.32679342E-4,.638E-5,0
STARLINK-30246,2023-119P,2026-06-11T00:54:34.674048,15.27578289,.00016108,43.0064,274.3058,263.7121,96.3547,0,U,57615,999,15736,.19928603E-4,.286E-5,0
STARLINK-30075,2023-119Q,2026-06-11T00:19:25.596480,15.27577346,.00012277,43.0034,274.1496,265.2482,94.8229,0,U,57616,999,15736,-.21778263E-4,-.861E-5,0
STARLINK-30148,2023-119R,2026-06-10T18:12:03.903264,15.27642302,.00008854,43.0026,275.6757,287.3742,72.7013,0,U,57617,999,15732,-.44223477E-3,-.12434E-3,0
STARLINK-30249,2023-119S,2026-06-11T00:34:12.468288,15.27579241,.00034328,43.0194,274.2256,264.9311,95.1149,0,U,57618,999,15736,.3771945E-5,-.16E-5,0
STARLINK-30141,2023-119U,2026-06-11T00:50:53.381184,15.27572046,.00010478,43.0064,274.3087,256.9249,103.1486,0,U,57620,999,15736,-.24932155E-4,-.948E-5,0
STARLINK-30150,2023-119V,2026-06-10T01:12:57.391200,15.27581005,.00056663,43.0403,279.8180,267.6615,92.3588,0,U,57621,999,15721,.10407857E-4,.22E-6,0
STARLINK-30056,2023-119W,2026-06-11T01:00:06.775776,15.27582360,.00015603,43.0035,274.3288,258.8578,101.2098,0,U,57622,999,15736,.32897335E-4,.643E-5,0
STARLINK-30100,2023-119X,2026-06-09T14:34:14.008512,15.27583871,.00019723,43.0088,282.5079,270.7152,89.3474,0,U,57623,999,15714,.48683362E-4,.1078E-4,0
LUDI TANCE-4 01A,2023-120A,2026-06-11T02:32:21.844896,1.00270076,.00009075,15.1059,194.1211,72.8540,120.2878,0,U,57624,999,1048,0,-.152E-5,0
HEAD-3A,2023-121A,2026-06-11T04:38:37.228416,14.60672065,.00071862,45.0030,341.1832,247.2507,112.7591,0,U,57626,999,15070,.16388718E-3,.646E-5,0
HEAD-3B,2023-121B,2026-06-11T06:41:46.489056,14.61577217,.00060769,45.0039,334.0032,238.0394,121.9873,0,U,57627,999,15080,.16760087E-3,.68E-5,0
HEAD-3C,2023-121C,2026-06-11T07:20:03.038208,14.62252296,.00066226,44.9998,328.3272,238.4374,121.5837,0,U,57628,999,15087,.16792369E-3,.694E-5,0
HEAD-3D,2023-121D,2026-06-11T06:24:51.306336,14.62921457,.00079251,45.0052,323.8591,235.9183,124.0924,0,U,57629,999,15093,.17391467E-3,.736E-5,0
HEAD-3E,2023-121E,2026-06-11T07:06:16.037280,14.63854029,.00084725,45.0029,316.7892,229.3046,130.7077,0,U,57630,999,15102,.17982507E-3,.785E-5,0
STARLINK-30309,2023-122A,2026-06-11T05:57:18.303264,15.27582284,.00019446,43.0049,284.3020,271.9274,88.1355,0,U,57632,999,15651,.86939445E-4,.2131E-4,0
STARLINK-30306,2023-122B,2026-06-10T01:48:03.189024,15.27579246,.00012736,42.9879,290.9741,106.1818,253.9174,0,U,57633,999,15633,.20256007E-4,.296E-5,0
STARLINK-30323,2023-122C,2026-06-11T00:43:26.100480,15.27576597,.00052399,43.0271,274.2116,272.0145,88.0107,0,U,57634,999,15661,-.18729838E-4,-.78E-5,0
STARLINK-30329,2023-122D,2026-06-11T01:29:39.860160,15.27564798,.00002935,42.9992,285.4838,8.6169,351.4688,0,U,57635,999,15648,-.45832854E-4,-.1522E-4,0
STARLINK-30330,2023-122E,2026-06-11T01:35:10.966560,15.27576905,.00024273,43.0087,285.5129,274.5727,85.4847,0,U,57636,999,15648,-.2740006E-5,-.338E-5,0
STARLINK-30311,2023-122F,2026-06-10T14:56:14.994528,15.27575896,.00010574,43.0032,287.3456,261.0263,99.0469,0,U,57637,999,15642,.52954526E-4,.1195E-4,0
STARLINK-30328,2023-122G,2026-06-11T00:32:20.785056,15.27576778,.00005713,43.0031,274.0948,279.8881,80.1906,0,U,57638,999,15662,-.10239774E-4,-.544E-5,0
STARLINK-30326,2023-122H,2026-06-11T00:58:10.985952,15.27581388,.00013607,43.0065,285.3077,265.9750,94.0946,0,U,57639,999,15648,.30715872E-4,.583E-5,0
STARLINK-30324,2023-122J,2026-06-11T01:24:04.496832,15.27578812,.00030194,43.0127,285.4510,263.9487,96.1021,0,U,57640,999,15647,-.5303932E-5,-.409E-5,0
STARLINK-30312,2023-122K,2026-06-10T14:46:59.466720,15.27578082,.00007001,43.0015,287.2962,242.2913,117.7868,0,U,57641,999,15642,.28782679E-4,.53E-5,0
STARLINK-30263,2023-122L,2026-06-10T19:44:15.758304,15.27588543,.00013168,42.9973,286.2637,130.1780,229.9187,0,U,57642,999,15645,.74614969E-4,.1792E-4,0
